{
  "type": "FeatureCollection",
  "features": [
    {
      "type": "Feature",
      "properties": {
        "NAME_T": "ลุ่มน้ำย่อยคลองป่าพะยอม(ทะเลน้อย",
        "km2": 431.879611179,
        "rai": 285780.372528
      },
      "geometry": {
        "type": "Polygon",
        "coordinates": [
          [
            [
              99.810405,
              7.817415
            ],
            [
              99.816359,
              7.819381
            ],
            [
              99.818254,
              7.81985
            ],
            [
              99.819484,
              7.819658
            ],
            [
              99.821093,
              7.8189
            ],
            [
              99.822228,
              7.81852
            ],
            [
              99.824122,
              7.818611
            ],
            [
              99.828386,
              7.820208
            ],
            [
              99.832268,
              7.820106
            ],
            [
              99.83558,
              7.819532
            ],
            [
              99.838326,
              7.819433
            ],
            [
              99.84221,
              7.820275
            ],
            [
              99.84789,
              7.820169
            ],
            [
              99.849311,
              7.820638
            ],
            [
              99.850735,
              7.822052
            ],
            [
              99.85159,
              7.823466
            ],
            [
              99.852351,
              7.825353
            ],
            [
              99.852927,
              7.829129
            ],
            [
              99.853973,
              7.831487
            ],
            [
              99.85464,
              7.833469
            ],
            [
              99.854832,
              7.834979
            ],
            [
              99.855594,
              7.837055
            ],
            [
              99.855976,
              7.838659
            ],
            [
              99.857308,
              7.841678
            ],
            [
              99.858256,
              7.842526
            ],
            [
              99.859678,
              7.84309
            ],
            [
              99.861193,
              7.843275
            ],
            [
              99.863748,
              7.84242
            ],
            [
              99.864884,
              7.842324
            ],
            [
              99.866021,
              7.84251
            ],
            [
              99.867158,
              7.842885
            ],
            [
              99.873886,
              7.845421
            ],
            [
              99.876632,
              7.84551
            ],
            [
              99.878051,
              7.845035
            ],
            [
              99.881455,
              7.842856
            ],
            [
              99.88344,
              7.840869
            ],
            [
              99.885426,
              7.840015
            ],
            [
              99.889118,
              7.839724
            ],
            [
              99.891865,
              7.839907
            ],
            [
              99.894899,
              7.842166
            ],
            [
              99.89642,
              7.844713
            ],
            [
              99.897464,
              7.846032
            ],
            [
              99.899265,
              7.846973
            ],
            [
              99.900687,
              7.847442
            ],
            [
              99.901823,
              7.847628
            ],
            [
              99.903909,
              7.848851
            ],
            [
              99.905331,
              7.849415
            ],
            [
              99.908362,
              7.849975
            ],
            [
              99.910732,
              7.85148
            ],
            [
              99.913768,
              7.853928
            ],
            [
              99.91519,
              7.854775
            ],
            [
              99.91955,
              7.856843
            ],
            [
              99.925331,
              7.859002
            ],
            [
              99.928173,
              7.859468
            ],
            [
              99.930162,
              7.859652
            ],
            [
              99.933098,
              7.860212
            ],
            [
              99.934141,
              7.860871
            ],
            [
              99.935566,
              7.862662
            ],
            [
              99.937367,
              7.863602
            ],
            [
              99.939261,
              7.863975
            ],
            [
              99.940492,
              7.863972
            ],
            [
              99.945793,
              7.863111
            ],
            [
              99.947403,
              7.863013
            ],
            [
              99.949676,
              7.863291
            ],
            [
              99.951381,
              7.863759
            ],
            [
              99.95479,
              7.863751
            ],
            [
              99.960467,
              7.862039
            ],
            [
              99.96558,
              7.861744
            ],
            [
              99.971256,
              7.859654
            ],
            [
              99.973716,
              7.858609
            ],
            [
              99.976934,
              7.857846
            ],
            [
              99.98375,
              7.857547
            ],
            [
              99.987917,
              7.857538
            ],
            [
              99.989431,
              7.857251
            ],
            [
              99.990755,
              7.856492
            ],
            [
              100.001919,
              7.852878
            ],
            [
              100.004098,
              7.853439
            ],
            [
              100.006939,
              7.853338
            ],
            [
              100.010345,
              7.852574
            ],
            [
              100.012479,
              7.852767
            ],
            [
              100.02035,
              7.849655
            ],
            [
              100.026922,
              7.848002
            ],
            [
              100.029397,
              7.847008
            ],
            [
              100.029995,
              7.847099
            ],
            [
              100.030794,
              7.846821
            ],
            [
              100.032461,
              7.846854
            ],
            [
              100.032951,
              7.846492
            ],
            [
              100.033688,
              7.846736
            ],
            [
              100.033869,
              7.845904
            ],
            [
              100.034174,
              7.845896
            ],
            [
              100.035236,
              7.845167
            ],
            [
              100.035729,
              7.845232
            ],
            [
              100.036415,
              7.844798
            ],
            [
              100.036733,
              7.844781
            ],
            [
              100.03708,
              7.844588
            ],
            [
              100.037307,
              7.844274
            ],
            [
              100.03767,
              7.844273
            ],
            [
              100.039214,
              7.842869
            ],
            [
              100.039646,
              7.842649
            ],
            [
              100.040389,
              7.842598
            ],
            [
              100.041661,
              7.842208
            ],
            [
              100.042345,
              7.841657
            ],
            [
              100.043381,
              7.841541
            ],
            [
              100.043729,
              7.842
            ],
            [
              100.045369,
              7.843261
            ],
            [
              100.045858,
              7.843191
            ],
            [
              100.046942,
              7.842602
            ],
            [
              100.047616,
              7.842702
            ],
            [
              100.047931,
              7.843068
            ],
            [
              100.048609,
              7.843221
            ],
            [
              100.048984,
              7.843082
            ],
            [
              100.049573,
              7.843291
            ],
            [
              100.050184,
              7.843176
            ],
            [
              100.050301,
              7.842724
            ],
            [
              100.050713,
              7.842666
            ],
            [
              100.05109,
              7.842889
            ],
            [
              100.051696,
              7.84222
            ],
            [
              100.052602,
              7.84057
            ],
            [
              100.053277,
              7.839799
            ],
            [
              100.055242,
              7.838777
            ],
            [
              100.055733,
              7.838014
            ],
            [
              100.055877,
              7.838003
            ],
            [
              100.056844,
              7.838581
            ],
            [
              100.058126,
              7.838989
            ],
            [
              100.058767,
              7.839443
            ],
            [
              100.059307,
              7.839583
            ],
            [
              100.059632,
              7.840329
            ],
            [
              100.060846,
              7.841342
            ],
            [
              100.061754,
              7.841697
            ],
            [
              100.062251,
              7.842088
            ],
            [
              100.063151,
              7.842371
            ],
            [
              100.064175,
              7.843569
            ],
            [
              100.066735,
              7.843017
            ],
            [
              100.067942,
              7.842575
            ],
            [
              100.069019,
              7.841685
            ],
            [
              100.06954,
              7.841416
            ],
            [
              100.069756,
              7.841035
            ],
            [
              100.070321,
              7.840629
            ],
            [
              100.072839,
              7.840178
            ],
            [
              100.072949,
              7.84162
            ],
            [
              100.073139,
              7.841991
            ],
            [
              100.075717,
              7.841877
            ],
            [
              100.075904,
              7.841956
            ],
            [
              100.076074,
              7.842735
            ],
            [
              100.076292,
              7.843092
            ],
            [
              100.076368,
              7.846011
            ],
            [
              100.077876,
              7.84894
            ],
            [
              100.079473,
              7.850619
            ],
            [
              100.080242,
              7.851311
            ],
            [
              100.083691,
              7.853259
            ],
            [
              100.085889,
              7.85383
            ],
            [
              100.088612,
              7.856052
            ],
            [
              100.092296,
              7.858252
            ],
            [
              100.098827,
              7.861002
            ],
            [
              100.100545,
              7.861548
            ],
            [
              100.103977,
              7.861838
            ],
            [
              100.107422,
              7.862327
            ],
            [
              100.113939,
              7.864196
            ],
            [
              100.119065,
              7.86612
            ],
            [
              100.123815,
              7.86811
            ],
            [
              100.128914,
              7.869658
            ],
            [
              100.133595,
              7.870468
            ],
            [
              100.138093,
              7.870735
            ],
            [
              100.147907,
              7.871045
            ],
            [
              100.150026,
              7.87124
            ],
            [
              100.152744,
              7.871634
            ],
            [
              100.156474,
              7.871967
            ],
            [
              100.160896,
              7.872687
            ],
            [
              100.165692,
              7.872888
            ],
            [
              100.16933,
              7.872534
            ],
            [
              100.170773,
              7.872569
            ],
            [
              100.173491,
              7.873073
            ],
            [
              100.174364,
              7.874779
            ],
            [
              100.174637,
              7.875097
            ],
            [
              100.175605,
              7.873263
            ],
            [
              100.17602,
              7.872094
            ],
            [
              100.180058,
              7.856253
            ],
            [
              100.18478,
              7.839152
            ],
            [
              100.200993,
              7.777578
            ],
            [
              100.201763,
              7.776097
            ],
            [
              100.202196,
              7.775533
            ],
            [
              100.203744,
              7.775023
            ],
            [
              100.203977,
              7.774659
            ],
            [
              100.203955,
              7.774489
            ],
            [
              100.203751,
              7.77437
            ],
            [
              100.202819,
              7.774253
            ],
            [
              100.20206,
              7.773353
            ],
            [
              100.202049,
              7.772783
            ],
            [
              100.202388,
              7.772082
            ],
            [
              100.202369,
              7.771686
            ],
            [
              100.202035,
              7.77131
            ],
            [
              100.201564,
              7.770943
            ],
            [
              100.20055,
              7.770525
            ],
            [
              100.199395,
              7.770903
            ],
            [
              100.198926,
              7.770662
            ],
            [
              100.198884,
              7.769873
            ],
            [
              100.198231,
              7.767279
            ],
            [
              100.196188,
              7.764892
            ],
            [
              100.195404,
              7.764798
            ],
            [
              100.195247,
              7.764568
            ],
            [
              100.195208,
              7.763988
            ],
            [
              100.194351,
              7.76404
            ],
            [
              100.194276,
              7.763917
            ],
            [
              100.194387,
              7.763616
            ],
            [
              100.194038,
              7.763352
            ],
            [
              100.192618,
              7.76365
            ],
            [
              100.192138,
              7.763606
            ],
            [
              100.191741,
              7.763404
            ],
            [
              100.191064,
              7.762237
            ],
            [
              100.19088,
              7.761045
            ],
            [
              100.190978,
              7.759841
            ],
            [
              100.19065,
              7.758479
            ],
            [
              100.189072,
              7.75793
            ],
            [
              100.188277,
              7.758158
            ],
            [
              100.187448,
              7.758118
            ],
            [
              100.187208,
              7.757917
            ],
            [
              100.186187,
              7.757565
            ],
            [
              100.18602,
              7.757244
            ],
            [
              100.185604,
              7.757015
            ],
            [
              100.185575,
              7.756426
            ],
            [
              100.185289,
              7.756427
            ],
            [
              100.184589,
              7.757008
            ],
            [
              100.184165,
              7.757111
            ],
            [
              100.183786,
              7.75702
            ],
            [
              100.183693,
              7.756698
            ],
            [
              100.183106,
              7.756446
            ],
            [
              100.182902,
              7.75618
            ],
            [
              100.182939,
              7.755894
            ],
            [
              100.18274,
              7.755737
            ],
            [
              100.182398,
              7.755765
            ],
            [
              100.181851,
              7.75633
            ],
            [
              100.181427,
              7.756451
            ],
            [
              100.1809,
              7.756301
            ],
            [
              100.180381,
              7.755459
            ],
            [
              100.18024,
              7.754051
            ],
            [
              100.179613,
              7.754175
            ],
            [
              100.179753,
              7.753699
            ],
            [
              100.179679,
              7.753497
            ],
            [
              100.179289,
              7.753609
            ],
            [
              100.179226,
              7.753305
            ],
            [
              100.179015,
              7.753229
            ],
            [
              100.178756,
              7.753343
            ],
            [
              100.178577,
              7.752156
            ],
            [
              100.178326,
              7.751834
            ],
            [
              100.177819,
              7.751679
            ],
            [
              100.177339,
              7.751699
            ],
            [
              100.176641,
              7.752197
            ],
            [
              100.17644,
              7.751823
            ],
            [
              100.175942,
              7.752066
            ],
            [
              100.175655,
              7.752021
            ],
            [
              100.175534,
              7.751635
            ],
            [
              100.175118,
              7.751295
            ],
            [
              100.174684,
              7.75126
            ],
            [
              100.174361,
              7.750575
            ],
            [
              100.173169,
              7.750144
            ],
            [
              100.173129,
              7.749454
            ],
            [
              100.172591,
              7.750215
            ],
            [
              100.172154,
              7.750127
            ],
            [
              100.17214,
              7.749864
            ],
            [
              100.172316,
              7.749596
            ],
            [
              100.172112,
              7.749431
            ],
            [
              100.171831,
              7.749485
            ],
            [
              100.171887,
              7.749373
            ],
            [
              100.171681,
              7.749163
            ],
            [
              100.171714,
              7.748762
            ],
            [
              100.17124,
              7.74879
            ],
            [
              100.171461,
              7.748232
            ],
            [
              100.171239,
              7.748136
            ],
            [
              100.170936,
              7.748211
            ],
            [
              100.170869,
              7.747905
            ],
            [
              100.170697,
              7.747833
            ],
            [
              100.171144,
              7.747616
            ],
            [
              100.171076,
              7.747488
            ],
            [
              100.171177,
              7.747287
            ],
            [
              100.170798,
              7.747555
            ],
            [
              100.170129,
              7.747368
            ],
            [
              100.170874,
              7.746992
            ],
            [
              100.170884,
              7.746856
            ],
            [
              100.170662,
              7.746784
            ],
            [
              100.170833,
              7.746586
            ],
            [
              100.170412,
              7.746478
            ],
            [
              100.170775,
              7.746079
            ],
            [
              100.170513,
              7.746122
            ],
            [
              100.170389,
              7.745981
            ],
            [
              100.16983,
              7.745887
            ],
            [
              100.169915,
              7.745743
            ],
            [
              100.169481,
              7.745682
            ],
            [
              100.1695,
              7.745117
            ],
            [
              100.167519,
              7.747072
            ],
            [
              100.166464,
              7.74774
            ],
            [
              100.16467,
              7.750273
            ],
            [
              100.163954,
              7.75096
            ],
            [
              100.163116,
              7.75148
            ],
            [
              100.159465,
              7.75286
            ],
            [
              100.157277,
              7.753977
            ],
            [
              100.155949,
              7.754281
            ],
            [
              100.15383,
              7.755021
            ],
            [
              100.151748,
              7.755233
            ],
            [
              100.149214,
              7.75527
            ],
            [
              100.147987,
              7.755951
            ],
            [
              100.142476,
              7.758363
            ],
            [
              100.140905,
              7.758916
            ],
            [
              100.140294,
              7.758735
            ],
            [
              100.136704,
              7.76035
            ],
            [
              100.135164,
              7.760826
            ],
            [
              100.134341,
              7.761255
            ],
            [
              100.133522,
              7.763373
            ],
            [
              100.13307,
              7.765317
            ],
            [
              100.132472,
              7.765458
            ],
            [
              100.130473,
              7.766904
            ],
            [
              100.124585,
              7.768133
            ],
            [
              100.120167,
              7.768379
            ],
            [
              100.116424,
              7.768262
            ],
            [
              100.116816,
              7.773538
            ],
            [
              100.117295,
              7.777531
            ],
            [
              100.106209,
              7.777624
            ],
            [
              100.105453,
              7.777428
            ],
            [
              100.104611,
              7.776761
            ],
            [
              100.103695,
              7.775498
            ],
            [
              100.103337,
              7.77472
            ],
            [
              100.100615,
              7.774818
            ],
            [
              100.09642,
              7.774637
            ],
            [
              100.09629,
              7.776616
            ],
            [
              100.09588,
              7.777332
            ],
            [
              100.095679,
              7.778461
            ],
            [
              100.094266,
              7.778248
            ],
            [
              100.093842,
              7.779127
            ],
            [
              100.092615,
              7.779176
            ],
            [
              100.090976,
              7.779439
            ],
            [
              100.090718,
              7.779584
            ],
            [
              100.090558,
              7.779926
            ],
            [
              100.089584,
              7.780165
            ],
            [
              100.088645,
              7.779954
            ],
            [
              100.087107,
              7.780222
            ],
            [
              100.081999,
              7.780134
            ],
            [
              100.073131,
              7.779519
            ],
            [
              100.070341,
              7.779583
            ],
            [
              100.067126,
              7.77994
            ],
            [
              100.067173,
              7.780792
            ],
            [
              100.06414,
              7.78091
            ],
            [
              100.062344,
              7.780823
            ],
            [
              100.061218,
              7.78333
            ],
            [
              100.057006,
              7.783201
            ],
            [
              100.053446,
              7.78324
            ],
            [
              100.052479,
              7.783505
            ],
            [
              100.049087,
              7.783707
            ],
            [
              100.04895,
              7.783905
            ],
            [
              100.048272,
              7.784135
            ],
            [
              100.047801,
              7.784953
            ],
            [
              100.045493,
              7.785267
            ],
            [
              100.042428,
              7.7854
            ],
            [
              100.038494,
              7.784912
            ],
            [
              100.037138,
              7.785127
            ],
            [
              100.036375,
              7.785057
            ],
            [
              100.035033,
              7.785171
            ],
            [
              100.032511,
              7.785918
            ],
            [
              100.033269,
              7.787203
            ],
            [
              100.034448,
              7.788346
            ],
            [
              100.035036,
              7.789741
            ],
            [
              100.036386,
              7.795418
            ],
            [
              100.033361,
              7.795132
            ],
            [
              100.032223,
              7.794816
            ],
            [
              100.030533,
              7.795255
            ],
            [
              100.029697,
              7.795118
            ],
            [
              100.026523,
              7.796024
            ],
            [
              100.023888,
              7.797197
            ],
            [
              100.019872,
              7.79762
            ],
            [
              100.018833,
              7.798094
            ],
            [
              100.017294,
              7.799024
            ],
            [
              100.015626,
              7.799126
            ],
            [
              100.014279,
              7.799
            ],
            [
              100.012495,
              7.799233
            ],
            [
              100.011029,
              7.799211
            ],
            [
              100.008939,
              7.799894
            ],
            [
              100.006498,
              7.799475
            ],
            [
              100.006751,
              7.79763
            ],
            [
              100.006686,
              7.797412
            ],
            [
              100.006558,
              7.797382
            ],
            [
              100.004788,
              7.797261
            ],
            [
              100.003627,
              7.796968
            ],
            [
              100.0,
              7.797762
            ],
            [
              99.999396,
              7.797743
            ],
            [
              99.994065,
              7.79603
            ],
            [
              99.990496,
              7.795626
            ],
            [
              99.990646,
              7.795443
            ],
            [
              99.989568,
              7.795143
            ],
            [
              99.984149,
              7.794464
            ],
            [
              99.979093,
              7.793492
            ],
            [
              99.978854,
              7.793314
            ],
            [
              99.979004,
              7.791871
            ],
            [
              99.975097,
              7.791361
            ],
            [
              99.962818,
              7.787612
            ],
            [
              99.960775,
              7.786844
            ],
            [
              99.957685,
              7.785902
            ],
            [
              99.945507,
              7.783407
            ],
            [
              99.937698,
              7.780506
            ],
            [
              99.935252,
              7.778688
            ],
            [
              99.932576,
              7.777844
            ],
            [
              99.930754,
              7.777433
            ],
            [
              99.921842,
              7.776049
            ],
            [
              99.921391,
              7.775907
            ],
            [
              99.916978,
              7.773014
            ],
            [
              99.914968,
              7.772221
            ],
            [
              99.91461,
              7.771974
            ],
            [
              99.910816,
              7.771257
            ],
            [
              99.911392,
              7.770026
            ],
            [
              99.912103,
              7.767439
            ],
            [
              99.912059,
              7.765671
            ],
            [
              99.912641,
              7.763306
            ],
            [
              99.912571,
              7.762342
            ],
            [
              99.911719,
              7.760165
            ],
            [
              99.911824,
              7.758255
            ],
            [
              99.910474,
              7.75844
            ],
            [
              99.905356,
              7.759636
            ],
            [
              99.903809,
              7.75963
            ],
            [
              99.903533,
              7.759732
            ],
            [
              99.902866,
              7.759509
            ],
            [
              99.894645,
              7.758218
            ],
            [
              99.892485,
              7.758081
            ],
            [
              99.892117,
              7.758173
            ],
            [
              99.892563,
              7.751344
            ],
            [
              99.893011,
              7.750137
            ],
            [
              99.893351,
              7.749583
            ],
            [
              99.893892,
              7.746816
            ],
            [
              99.894094,
              7.744283
            ],
            [
              99.893058,
              7.744239
            ],
            [
              99.892019,
              7.744525
            ],
            [
              99.89134,
              7.744472
            ],
            [
              99.890636,
              7.743851
            ],
            [
              99.889807,
              7.743743
            ],
            [
              99.889552,
              7.742461
            ],
            [
              99.888692,
              7.742226
            ],
            [
              99.886861,
              7.742175
            ],
            [
              99.886264,
              7.742445
            ],
            [
              99.88407,
              7.7428
            ],
            [
              99.883062,
              7.743196
            ],
            [
              99.882009,
              7.743417
            ],
            [
              99.880329,
              7.742644
            ],
            [
              99.876909,
              7.742312
            ],
            [
              99.874758,
              7.743584
            ],
            [
              99.873278,
              7.744286
            ],
            [
              99.870723,
              7.744478
            ],
            [
              99.869955,
              7.753035
            ],
            [
              99.858902,
              7.752708
            ],
            [
              99.85699,
              7.753243
            ],
            [
              99.85562,
              7.752868
            ],
            [
              99.854452,
              7.751301
            ],
            [
              99.852935,
              7.750723
            ],
            [
              99.850548,
              7.75096
            ],
            [
              99.846344,
              7.746726
            ],
            [
              99.844647,
              7.742836
            ],
            [
              99.843074,
              7.742839
            ],
            [
              99.8422,
              7.743132
            ],
            [
              99.838586,
              7.741918
            ],
            [
              99.837067,
              7.74012
            ],
            [
              99.834528,
              7.737829
            ],
            [
              99.831906,
              7.737311
            ],
            [
              99.831149,
              7.737371
            ],
            [
              99.830391,
              7.737605
            ],
            [
              99.829054,
              7.738828
            ],
            [
              99.827365,
              7.738948
            ],
            [
              99.826493,
              7.739879
            ],
            [
              99.826087,
              7.740984
            ],
            [
              99.82557,
              7.741313
            ],
            [
              99.825694,
              7.741764
            ],
            [
              99.824412,
              7.744764
            ],
            [
              99.823773,
              7.747442
            ],
            [
              99.825816,
              7.749044
            ],
            [
              99.827749,
              7.749576
            ],
            [
              99.828394,
              7.749896
            ],
            [
              99.829147,
              7.751072
            ],
            [
              99.829367,
              7.753427
            ],
            [
              99.828198,
              7.75964
            ],
            [
              99.82595,
              7.762856
            ],
            [
              99.823804,
              7.763717
            ],
            [
              99.818326,
              7.761693
            ],
            [
              99.816929,
              7.761053
            ],
            [
              99.814246,
              7.76138
            ],
            [
              99.813607,
              7.764058
            ],
            [
              99.813073,
              7.765451
            ],
            [
              99.810713,
              7.766419
            ],
            [
              99.807709,
              7.767388
            ],
            [
              99.80568,
              7.772853
            ],
            [
              99.804289,
              7.775318
            ],
            [
              99.801822,
              7.776714
            ],
            [
              99.800213,
              7.777467
            ],
            [
              99.798389,
              7.778006
            ],
            [
              99.795922,
              7.778974
            ],
            [
              99.793027,
              7.781121
            ],
            [
              99.78981,
              7.782947
            ],
            [
              99.786485,
              7.784345
            ],
            [
              99.784554,
              7.785312
            ],
            [
              99.782517,
              7.786601
            ],
            [
              99.781229,
              7.787032
            ],
            [
              99.777151,
              7.787896
            ],
            [
              99.775542,
              7.788434
            ],
            [
              99.773931,
              7.788437
            ],
            [
              99.77138,
              7.788196
            ],
            [
              99.771162,
              7.788678
            ],
            [
              99.769625,
              7.790634
            ],
            [
              99.768816,
              7.79237
            ],
            [
              99.772795,
              7.793435
            ],
            [
              99.774324,
              7.793731
            ],
            [
              99.776413,
              7.793912
            ],
            [
              99.777459,
              7.794319
            ],
            [
              99.779101,
              7.795581
            ],
            [
              99.781639,
              7.797025
            ],
            [
              99.783432,
              7.79862
            ],
            [
              99.785073,
              7.798916
            ],
            [
              99.786789,
              7.798949
            ],
            [
              99.789811,
              7.79991
            ],
            [
              99.791639,
              7.800315
            ],
            [
              99.792571,
              7.800053
            ],
            [
              99.793466,
              7.799977
            ],
            [
              99.794995,
              7.800049
            ],
            [
              99.797788,
              7.798482
            ],
            [
              99.799889,
              7.79661
            ],
            [
              99.801083,
              7.796471
            ],
            [
              99.80163,
              7.796573
            ],
            [
              99.802452,
              7.797456
            ],
            [
              99.802796,
              7.798954
            ],
            [
              99.803345,
              7.799873
            ],
            [
              99.804612,
              7.80137
            ],
            [
              99.805536,
              7.802015
            ],
            [
              99.805981,
              7.802729
            ],
            [
              99.807423,
              7.805962
            ],
            [
              99.807867,
              7.806438
            ],
            [
              99.808484,
              7.806676
            ],
            [
              99.808757,
              7.806914
            ],
            [
              99.808725,
              7.807766
            ],
            [
              99.808351,
              7.809163
            ],
            [
              99.808659,
              7.809639
            ],
            [
              99.809925,
              7.81042
            ],
            [
              99.810131,
              7.81076
            ],
            [
              99.80979,
              7.813492
            ],
            [
              99.809733,
              7.815446
            ],
            [
              99.81041,
              7.8174
            ],
            [
              99.810405,
              7.817415
            ]
          ],
          [
            [
              100.152078,
              7.808675
            ],
            [
              100.149891,
              7.808271
            ],
            [
              100.14781,
              7.808058
            ],
            [
              100.145637,
              7.808328
            ],
            [
              100.144159,
              7.808226
            ],
            [
              100.140044,
              7.807293
            ],
            [
              100.138531,
              7.806137
            ],
            [
              100.135349,
              7.804444
            ],
            [
              100.13428,
              7.804117
            ],
            [
              100.133173,
              7.803464
            ],
            [
              100.132539,
              7.803352
            ],
            [
              100.130186,
              7.801454
            ],
            [
              100.128522,
              7.799012
            ],
            [
              100.12801,
              7.797862
            ],
            [
              100.126806,
              7.798127
            ],
            [
              100.126651,
              7.79616
            ],
            [
              100.124386,
              7.789016
            ],
            [
              100.122632,
              7.777089
            ],
            [
              100.122567,
              7.775057
            ],
            [
              100.122757,
              7.774607
            ],
            [
              100.122592,
              7.774344
            ],
            [
              100.122812,
              7.772607
            ],
            [
              100.12341,
              7.772387
            ],
            [
              100.125274,
              7.772616
            ],
            [
              100.125689,
              7.772826
            ],
            [
              100.126267,
              7.773473
            ],
            [
              100.126644,
              7.774493
            ],
            [
              100.126814,
              7.7745
            ],
            [
              100.127455,
              7.774069
            ],
            [
              100.127916,
              7.773347
            ],
            [
              100.128603,
              7.773
            ],
            [
              100.128597,
              7.772559
            ],
            [
              100.128974,
              7.772197
            ],
            [
              100.129446,
              7.772132
            ],
            [
              100.130327,
              7.770606
            ],
            [
              100.130936,
              7.770539
            ],
            [
              100.132071,
              7.769888
            ],
            [
              100.132867,
              7.769062
            ],
            [
              100.133143,
              7.769166
            ],
            [
              100.133887,
              7.769051
            ],
            [
              100.13414,
              7.769293
            ],
            [
              100.134357,
              7.769325
            ],
            [
              100.135438,
              7.76862
            ],
            [
              100.137757,
              7.768754
            ],
            [
              100.139177,
              7.769042
            ],
            [
              100.14052,
              7.768995
            ],
            [
              100.142901,
              7.76834
            ],
            [
              100.148679,
              7.766175
            ],
            [
              100.153962,
              7.765016
            ],
            [
              100.155868,
              7.764827
            ],
            [
              100.158909,
              7.764019
            ],
            [
              100.162298,
              7.763372
            ],
            [
              100.163164,
              7.763034
            ],
            [
              100.164513,
              7.763228
            ],
            [
              100.166147,
              7.762867
            ],
            [
              100.169267,
              7.763031
            ],
            [
              100.171335,
              7.762583
            ],
            [
              100.17179,
              7.762614
            ],
            [
              100.173021,
              7.763359
            ],
            [
              100.173959,
              7.76358
            ],
            [
              100.174381,
              7.764065
            ],
            [
              100.175468,
              7.764526
            ],
            [
              100.180189,
              7.767189
            ],
            [
              100.182304,
              7.769142
            ],
            [
              100.182946,
              7.770081
            ],
            [
              100.184118,
              7.774637
            ],
            [
              100.183929,
              7.776711
            ],
            [
              100.182894,
              7.782483
            ],
            [
              100.182366,
              7.78337
            ],
            [
              100.18196,
              7.78349
            ],
            [
              100.18168,
              7.783933
            ],
            [
              100.181552,
              7.784622
            ],
            [
              100.181619,
              7.78497
            ],
            [
              100.182075,
              7.78552
            ],
            [
              100.18252,
              7.787129
            ],
            [
              100.183598,
              7.788842
            ],
            [
              100.183864,
              7.789501
            ],
            [
              100.184239,
              7.792274
            ],
            [
              100.184175,
              7.7944
            ],
            [
              100.181994,
              7.79633
            ],
            [
              100.179551,
              7.79899
            ],
            [
              100.174167,
              7.803445
            ],
            [
              100.172095,
              7.804242
            ],
            [
              100.163713,
              7.805283
            ],
            [
              100.15733,
              7.808015
            ],
            [
              100.155426,
              7.808628
            ],
            [
              100.153017,
              7.80881
            ],
            [
              100.152288,
              7.808731
            ],
            [
              100.152078,
              7.808675
            ]
          ]
        ]
      }
    }
  ]
}
