{"type":"FeatureCollection","features":[{"type":"Feature","geometry":{"type":"Polygon","coordinates":[[[99.96081,7.88926],[99.95911,7.89124],[99.95733,7.89287],[99.95733,7.89287],[99.95691,7.89323],[99.95658,7.8936],[99.95624,7.89412],[99.95586,7.89459],[99.95518,7.89524],[99.95504,7.89541],[99.95492,7.89564],[99.95468,7.89606],[99.9544,7.89662],[99.95411,7.89699],[99.95387,7.89719],[99.95359,7.8974],[99.9534,7.89752],[99.95316,7.89757],[99.95286,7.89751],[99.95262,7.89741],[99.95243,7.89728],[99.95227,7.89709],[99.95216,7.89692],[99.95206,7.89672],[99.95165,7.89561],[99.95127,7.89469],[99.95091,7.89418],[99.95053,7.89379],[99.9493,7.89288],[99.94905,7.89266],[99.94898,7.89251],[99.94897,7.89232],[99.94903,7.89198],[99.949,7.89178],[99.9489,7.89148],[99.94884,7.89106],[99.94876,7.89081],[99.94863,7.89069],[99.94827,7.89059],[99.94817,7.89048],[99.9481,7.89033],[99.94799,7.89006],[99.94778,7.8895],[99.94773,7.88934],[99.94767,7.88923],[99.9476,7.88917],[99.94746,7.88912],[99.94719,7.8891],[99.94698,7.88911],[99.94685,7.88909],[99.94672,7.88907],[99.94662,7.88901],[99.9465,7.88893],[99.94639,7.88883],[99.94633,7.88875],[99.94631,7.88868],[99.9463,7.88856],[99.94632,7.88846],[99.94646,7.88826],[99.94649,7.88776],[99.94652,7.88763],[99.94659,7.88753],[99.94669,7.88748],[99.94684,7.88745],[99.94714,7.8873],[99.94737,7.8871],[99.94767,7.88674],[99.94771,7.88655],[99.94771,7.88634],[99.94767,7.88614],[99.94761,7.88599],[99.94735,7.88567],[99.94715,7.88547],[99.94678,7.88527],[99.94633,7.88529],[99.94585,7.8851],[99.94546,7.88505],[99.94427,7.88528],[99.9435,7.88544],[99.9432,7.88541],[99.9429,7.88531],[99.9426,7.8851],[99.9424,7.8847],[99.94205,7.88402],[99.94182,7.8835],[99.94153,7.88257],[99.9414,7.88207],[99.94137,7.88183],[99.94142,7.88164],[99.94157,7.88145],[99.94177,7.88139],[99.94189,7.88135],[99.94193,7.88126],[99.94186,7.88098],[99.94188,7.88086],[99.94195,7.88066],[99.94192,7.8805],[99.94187,7.88032],[99.94167,7.88],[99.94143,7.87975],[99.94118,7.87953],[99.94113,7.87938],[99.94107,7.87891],[99.94085,7.87847],[99.94064,7.87833],[99.94039,7.87826],[99.93981,7.87827],[99.9395,7.87818],[99.93888,7.87785],[99.93813,7.8777],[99.93735,7.87771],[99.9365,7.87785],[99.93559,7.87815],[99.93514,7.87815],[99.93477,7.87808],[99.93383,7.87736],[99.93352,7.87701],[99.93342,7.87693],[99.9333,7.87687],[99.93262,7.87659],[99.93248,7.87646],[99.93222,7.876],[99.93217,7.8759],[99.93207,7.87583],[99.93186,7.87581],[99.93138,7.87586],[99.93111,7.87578],[99.93098,7.87573],[99.9309,7.87566],[99.93084,7.87553],[99.93077,7.87516],[99.93065,7.87501],[99.93046,7.87492],[99.92997,7.87485],[99.92954,7.87456],[99.92928,7.87428],[99.92901,7.87369],[99.92866,7.87311],[99.92807,7.87265],[99.92773,7.87252],[99.92722,7.8725],[99.92663,7.87264],[99.92593,7.87287],[99.92559,7.8729],[99.92531,7.87278],[99.92458,7.87234],[99.92369,7.87209],[99.92318,7.87188],[99.92274,7.87167],[99.92225,7.87153],[99.92199,7.8715],[99.92178,7.87147],[99.92139,7.87154],[99.92094,7.87183],[99.92044,7.87187],[99.92012,7.87182],[99.91957,7.87154],[99.91903,7.87109],[99.91807,7.87023],[99.91738,7.87],[99.91638,7.86997],[99.91523,7.87028],[99.91361,7.8708],[99.91251,7.8714],[99.91122,7.87213],[99.91002,7.87319],[99.90884,7.87438],[99.90775,7.87573],[99.90699,7.8765],[99.90602,7.87749],[99.90474,7.8786],[99.90331,7.87978],[99.90191,7.88091],[99.90077,7.88162],[99.89948,7.88233],[99.8984,7.88291],[99.89723,7.88341],[99.89648,7.88369],[99.89534,7.88419],[99.89446,7.88476],[99.89361,7.88537],[99.89261,7.88577],[99.89101,7.88666],[99.88953,7.8874],[99.88804,7.88808],[99.88688,7.88854],[99.88619,7.88891],[99.88563,7.88954],[99.88498,7.88994],[99.88437,7.89041],[99.8839,7.89105],[99.88327,7.89186],[99.8829,7.89222],[99.88261,7.89245],[99.88201,7.89212],[99.8815,7.89186],[99.88077,7.89173],[99.88022,7.89172],[99.87938,7.89163],[99.87886,7.89156],[99.87825,7.89154],[99.8777,7.89124],[99.87741,7.89106],[99.87678,7.89056],[99.87656,7.89044],[99.87624,7.8904],[99.87506,7.89023],[99.87415,7.89004],[99.87378,7.88988],[99.87341,7.88967],[99.87307,7.88943],[99.87259,7.88906],[99.87219,7.88876],[99.87181,7.88858],[99.87119,7.88858],[99.87078,7.88868],[99.87025,7.88859],[99.86987,7.88821],[99.86959,7.88759],[99.86943,7.8873],[99.8693,7.88721],[99.86896,7.88708],[99.86861,7.88703],[99.86834,7.88708],[99.86777,7.88725],[99.86741,7.8873],[99.86681,7.88738],[99.86622,7.88749],[99.86547,7.88763],[99.86492,7.88763],[99.86458,7.88758],[99.86421,7.88746],[99.86359,7.88724],[99.86324,7.88713],[99.86287,7.88692],[99.86253,7.88674],[99.862,7.88661],[99.86169,7.88657],[99.86138,7.88666],[99.86128,7.88677],[99.86122,7.88709],[99.86122,7.88782],[99.86102,7.8882],[99.86082,7.88845],[99.86044,7.88866],[99.85971,7.88891],[99.85908,7.88903],[99.8582,7.88899],[99.85724,7.88884],[99.85488,7.88888],[99.85343,7.88867],[99.85274,7.88852],[99.85166,7.88823],[99.85122,7.88819],[99.85086,7.88825],[99.85032,7.88852],[99.8499,7.88879],[99.84924,7.88935],[99.84896,7.88956],[99.84867,7.88993],[99.8484,7.89004],[99.84813,7.89004],[99.84747,7.8898],[99.84698,7.88969],[99.84639,7.88972],[99.846,7.88995],[99.84573,7.89026],[99.84536,7.89053],[99.84512,7.89067],[99.84453,7.89095],[99.84361,7.89122],[99.8431,7.8913],[99.84203,7.89133],[99.84173,7.89122],[99.84101,7.89089],[99.84041,7.89059],[99.83987,7.8902],[99.83943,7.8897],[99.83923,7.88949],[99.83889,7.88924],[99.83855,7.889],[99.83835,7.88887],[99.83782,7.8884],[99.8377,7.88812],[99.83759,7.88767],[99.83747,7.8869],[99.83737,7.88657],[99.83708,7.88604],[99.83679,7.88584],[99.83649,7.88569],[99.83619,7.88561],[99.8357,7.88558],[99.83546,7.88555],[99.83524,7.88557],[99.83507,7.8856],[99.83478,7.88578],[99.8342,7.88589],[99.83362,7.88619],[99.83314,7.88637],[99.83276,7.88642],[99.83234,7.88636],[99.83213,7.88628],[99.83195,7.88626],[99.83155,7.88639],[99.83121,7.8864],[99.8309,7.88628],[99.83042,7.88606],[99.83017,7.88592],[99.82995,7.88576],[99.82961,7.88554],[99.82934,7.88532],[99.82886,7.88516],[99.82859,7.88511],[99.82833,7.88513],[99.82722,7.8857],[99.82657,7.88592],[99.8263,7.88606],[99.8261,7.88628],[99.82592,7.88649],[99.8253,7.88691],[99.8246,7.88724],[99.82437,7.88729],[99.82403,7.8873],[99.82381,7.88728],[99.82363,7.8873],[99.82349,7.88736],[99.8232,7.8876],[99.82299,7.88782],[99.82287,7.88789],[99.82254,7.88795],[99.82233,7.88799],[99.82222,7.88794],[99.82219,7.88785],[99.82213,7.88744],[99.82202,7.88707],[99.82199,7.8867],[99.82192,7.88646],[99.82182,7.88628],[99.8215,7.88593],[99.82114,7.8857],[99.82054,7.88533],[99.81984,7.88494],[99.81932,7.88482],[99.81899,7.88489],[99.81848,7.88504],[99.81811,7.88523],[99.81772,7.8854],[99.81704,7.88561],[99.81649,7.88583],[99.81571,7.88636],[99.8148,7.88728],[99.8145,7.88767],[99.81412,7.88827],[99.8137,7.88947],[99.81365,7.88976],[99.81336,7.89007],[99.81304,7.89028],[99.81261,7.89037],[99.81229,7.89029],[99.81162,7.88979],[99.81111,7.8894],[99.81079,7.88924],[99.81026,7.88893],[99.80951,7.88859],[99.80903,7.8885],[99.80866,7.88862],[99.80829,7.88884],[99.80795,7.88919],[99.80736,7.88978],[99.80712,7.89014],[99.80669,7.8907],[99.8064,7.89086],[99.8061,7.89086],[99.8057,7.89065],[99.80501,7.88996],[99.80452,7.88943],[99.80427,7.88916],[99.80353,7.88844],[99.80324,7.88807],[99.8032,7.88791],[99.80322,7.88779],[99.8036,7.88733],[99.80378,7.88707],[99.80388,7.88658],[99.80386,7.88631],[99.80381,7.8861],[99.80328,7.88572],[99.80257,7.88541],[99.80205,7.88526],[99.80144,7.88504],[99.80093,7.88497],[99.80069,7.88494],[99.80057,7.88487],[99.80046,7.88474],[99.80017,7.88418],[99.79996,7.88386],[99.79974,7.88356],[99.79945,7.88325],[99.79899,7.88282],[99.79879,7.88236],[99.79867,7.88199],[99.79851,7.88123],[99.79842,7.88062],[99.79794,7.87944],[99.7979,7.87927],[99.79785,7.87896],[99.79787,7.87873],[99.79794,7.87856],[99.79814,7.87841],[99.79836,7.87826],[99.79874,7.87808],[99.79938,7.87797],[99.79975,7.87775],[99.79998,7.87755],[99.79999,7.87727],[99.79995,7.87701],[99.79983,7.87671],[99.79967,7.87643],[99.7995,7.87614],[99.79923,7.87599],[99.79898,7.87594],[99.7986,7.87602],[99.79796,7.87604],[99.79747,7.87609],[99.7972,7.87595],[99.79702,7.87571],[99.79686,7.87541],[99.79647,7.87495],[99.79601,7.87469],[99.79561,7.87428],[99.79545,7.87409],[99.79537,7.8738],[99.79537,7.87356],[99.79543,7.8733],[99.7957,7.8728],[99.79569,7.8725],[99.79558,7.87227],[99.79505,7.87192],[99.79461,7.87139],[99.79438,7.87088],[99.7943,7.8702],[99.79427,7.8692],[99.79417,7.86867],[99.79383,7.86818],[99.79356,7.86787],[99.793,7.86745],[99.79257,7.86713],[99.7925,7.86696],[99.79257,7.86662],[99.79276,7.86613],[99.79284,7.8656],[99.79276,7.86515],[99.79251,7.86484],[99.79115,7.86432],[99.79068,7.86412],[99.78997,7.8637],[99.78922,7.86314],[99.78844,7.86253],[99.78821,7.8624],[99.78772,7.86206],[99.78742,7.86197],[99.78715,7.86196],[99.78674,7.86212],[99.78651,7.86225],[99.78618,7.86237],[99.78603,7.86238],[99.78574,7.86228],[99.78521,7.86193],[99.78453,7.86114],[99.78401,7.86041],[99.78366,7.8596],[99.78349,7.85907],[99.78347,7.85848],[99.7834,7.85783],[99.7833,7.85748],[99.78303,7.85723],[99.78238,7.85707],[99.7813,7.85708],[99.78052,7.85716],[99.77983,7.85739],[99.7788,7.85814],[99.77795,7.85869],[99.77773,7.85877],[99.77727,7.85871],[99.77661,7.85839],[99.77603,7.85798],[99.77551,7.85746],[99.77539,7.85735],[99.77516,7.85732],[99.775,7.85734],[99.77467,7.85739],[99.77438,7.85764],[99.77421,7.85789],[99.77409,7.85799],[99.77387,7.85802],[99.77362,7.85796],[99.77297,7.85765],[99.77275,7.85754],[99.77219,7.85735],[99.7718,7.85735],[99.77138,7.85748],[99.77101,7.85764],[99.77051,7.85794],[99.77005,7.85831],[99.76947,7.85867],[99.76865,7.85904],[99.76738,7.85939],[99.7663,7.85948],[99.76572,7.85961],[99.76501,7.85983],[99.76441,7.85998],[99.76415,7.86009],[99.7639,7.86026],[99.76369,7.86042],[99.76358,7.86058],[99.76342,7.86067],[99.76327,7.86073],[99.76301,7.86071],[99.76273,7.86051],[99.76245,7.8602],[99.76224,7.86005],[99.76204,7.85999],[99.76137,7.85996],[99.76088,7.85982],[99.76047,7.8596],[99.76018,7.85942],[99.75993,7.85916],[99.75979,7.85909],[99.75961,7.85907],[99.75933,7.85911],[99.75891,7.85913],[99.75761,7.85913],[99.75722,7.85909],[99.75697,7.859],[99.75659,7.8588],[99.75558,7.85803],[99.75528,7.85785],[99.75501,7.85781],[99.75475,7.85786],[99.75452,7.85805],[99.75432,7.85831],[99.75413,7.85848],[99.75367,7.8587],[99.75309,7.85873],[99.75251,7.85859],[99.75223,7.8585],[99.75183,7.85817],[99.75155,7.85775],[99.75134,7.85731],[99.75117,7.85683],[99.75104,7.85648],[99.75086,7.85614],[99.75067,7.85587],[99.75027,7.85564],[99.74999,7.85552],[99.74973,7.85538],[99.74964,7.85538],[99.74959,7.85545],[99.74953,7.85562],[99.74926,7.85587],[99.74899,7.85611],[99.74881,7.85621],[99.74826,7.85633],[99.74793,7.85645],[99.74778,7.85651],[99.74769,7.85658],[99.74766,7.8567],[99.74766,7.85688],[99.7477,7.85745],[99.74784,7.85798],[99.74784,7.85824],[99.74781,7.85848],[99.74772,7.85872],[99.74755,7.859],[99.7474,7.85924],[99.74722,7.85939],[99.7468,7.85958],[99.74613,7.85968],[99.74567,7.85965],[99.74521,7.85962],[99.74457,7.85953],[99.74404,7.85936],[99.74358,7.8592],[99.7433,7.85899],[99.743,7.85874],[99.74266,7.85838],[99.74234,7.85801],[99.74186,7.85747],[99.7417,7.85731],[99.74142,7.85718],[99.74117,7.85712],[99.73971,7.85725],[99.73909,7.85727],[99.73866,7.85738],[99.73833,7.85753],[99.73812,7.85776],[99.73796,7.85795],[99.73788,7.85819],[99.73783,7.8585],[99.73783,7.85879],[99.73793,7.85917],[99.73837,7.86004],[99.73863,7.86051],[99.7387,7.86068],[99.73869,7.8608],[99.73863,7.86088],[99.73849,7.86097],[99.73847,7.86099],[99.73845,7.86102],[99.73841,7.86113],[99.73836,7.86117],[99.73832,7.86119],[99.73792,7.86115],[99.73777,7.86116],[99.73768,7.86119],[99.73759,7.86128],[99.73773,7.85944],[99.73775,7.85903],[99.73774,7.85889],[99.73771,7.85869],[99.73766,7.8585],[99.73756,7.85829],[99.73744,7.85806],[99.73696,7.85713],[99.73625,7.85652],[99.73536,7.85607],[99.73515,7.85597],[99.73429,7.85552],[99.73357,7.8549],[99.7329,7.85378],[99.73256,7.85217],[99.73247,7.85107],[99.73236,7.84983],[99.73235,7.84929],[99.73244,7.84889],[99.73281,7.84822],[99.73377,7.84745],[99.73459,7.84681],[99.73517,7.84617],[99.73584,7.84528],[99.7362,7.84445],[99.73676,7.84354],[99.73753,7.84283],[99.7381,7.84241],[99.73852,7.84203],[99.73885,7.84153],[99.73905,7.84106],[99.73893,7.84084],[99.73863,7.84065],[99.73782,7.84051],[99.73728,7.84005],[99.73714,7.83959],[99.73723,7.83938],[99.73765,7.83914],[99.73809,7.83898],[99.73884,7.83892],[99.73993,7.83896],[99.74034,7.83885],[99.74075,7.83854],[99.74114,7.83817],[99.74151,7.83803],[99.74193,7.83793],[99.74327,7.83803],[99.74393,7.83802],[99.74497,7.83788],[99.74578,7.83798],[99.74647,7.83817],[99.74682,7.83834],[99.74684,7.83835],[99.74686,7.83836],[99.74689,7.83836],[99.74699,7.83828],[99.74804,7.8374],[99.74947,7.83592],[99.75066,7.83389],[99.75137,7.8321],[99.75162,7.83077],[99.75169,7.8294],[99.75161,7.82801],[99.75146,7.82683],[99.75145,7.82586],[99.75184,7.82485],[99.75296,7.824],[99.75461,7.82305],[99.75567,7.82228],[99.75639,7.82082],[99.75683,7.81897],[99.75729,7.81715],[99.75781,7.8148],[99.75781,7.8148],[99.75791,7.81318],[99.75795,7.81146],[99.75772,7.80946],[99.75766,7.80889],[99.75766,7.80887],[99.75759,7.80819],[99.75759,7.80651],[99.75785,7.80501],[99.75827,7.80375],[99.75916,7.80234],[99.76017,7.80163],[99.76134,7.80104],[99.76206,7.80075],[99.76293,7.80046],[99.76344,7.80013],[99.76374,7.79974],[99.7637,7.79885],[99.76343,7.79817],[99.76359,7.79755],[99.76423,7.79689],[99.76539,7.79639],[99.76622,7.79609],[99.7668,7.79581],[99.76727,7.79516],[99.76752,7.79432],[99.76817,7.79281],[99.76913,7.7915],[99.77025,7.79002],[99.77073,7.78903],[99.77079,7.78785],[99.77083,7.78651],[99.7709,7.78578],[99.77092,7.78501],[99.77088,7.78436],[99.77082,7.78376],[99.77033,7.78309],[99.76969,7.78268],[99.76871,7.7823],[99.76777,7.78197],[99.76705,7.78152],[99.76654,7.78106],[99.76608,7.78006],[99.76574,7.77898],[99.76562,7.77836],[99.76556,7.77793],[99.76563,7.77747],[99.76587,7.77705],[99.76634,7.7766],[99.76674,7.77621],[99.76693,7.77555],[99.76709,7.77512],[99.76739,7.77475],[99.7677,7.77455],[99.76841,7.7742],[99.76872,7.77401],[99.76909,7.77365],[99.76929,7.77313],[99.769,7.77253],[99.76855,7.77193],[99.76798,7.77109],[99.76758,7.77051],[99.76728,7.7701],[99.76699,7.76951],[99.76714,7.76867],[99.76813,7.76808],[99.76944,7.76753],[99.77134,7.76684],[99.77292,7.76636],[99.77403,7.76578],[99.77411,7.76566],[99.77492,7.76449],[99.77585,7.76245],[99.77651,7.76133],[99.77731,7.76071],[99.77859,7.76027],[99.78035,7.7602],[99.78196,7.76043],[99.7826,7.76042],[99.78316,7.76032],[99.7837,7.75989],[99.78371,7.75899],[99.7834,7.75816],[99.78313,7.75749],[99.783,7.75705],[99.78269,7.75655],[99.78204,7.75623],[99.78125,7.75602],[99.78089,7.75588],[99.78058,7.75563],[99.78027,7.75526],[99.78026,7.75473],[99.78068,7.75415],[99.78149,7.75322],[99.78254,7.75176],[99.78255,7.75171],[99.78281,7.75102],[99.78302,7.7503],[99.78302,7.74965],[99.78269,7.74929],[99.78239,7.74871],[99.78247,7.74827],[99.78301,7.7479],[99.78398,7.74754],[99.78482,7.74692],[99.78545,7.74582],[99.78578,7.74496],[99.78642,7.74436],[99.78741,7.74391],[99.78801,7.74367],[99.7914,7.75349],[99.79148,7.75409],[99.79187,7.75475],[99.79278,7.75532],[99.79349,7.75577],[99.79391,7.75649],[99.79422,7.75749],[99.79466,7.75828],[99.7957,7.75844],[99.79781,7.7583],[99.80002,7.75886],[99.80197,7.75961],[99.80352,7.75967],[99.80545,7.75965],[99.80746,7.75988],[99.80862,7.75827],[99.8092,7.75736],[99.81059,7.75654],[99.81248,7.75582],[99.81414,7.75541],[99.81624,7.75543],[99.81813,7.75586],[99.81983,7.75685],[99.82112,7.75789],[99.82231,7.7589],[99.82274,7.75953],[99.82313,7.76023],[99.82365,7.76085],[99.82471,7.76103],[99.82534,7.76084],[99.82624,7.76099],[99.82698,7.76079],[99.82753,7.76045],[99.82807,7.76032],[99.82906,7.76031],[99.83022,7.76018],[99.83162,7.75906],[99.83283,7.75747],[99.83383,7.75637],[99.83522,7.75442],[99.83579,7.7528],[99.83583,7.75258],[99.83595,7.75216],[99.8361,7.75172],[99.8363,7.75105],[99.83647,7.75056],[99.83669,7.74987],[99.837,7.74933],[99.83756,7.74855],[99.83812,7.74816],[99.839,7.74786],[99.83904,7.74786],[99.83953,7.74784],[99.83996,7.74792],[99.84051,7.74817],[99.8412,7.74848],[99.84186,7.74864],[99.84225,7.74882],[99.84249,7.74908],[99.84263,7.74952],[99.84284,7.75015],[99.84301,7.75104],[99.84326,7.75176],[99.84361,7.75283],[99.84367,7.753],[99.84395,7.75374],[99.8445,7.75444],[99.84516,7.75507],[99.84565,7.75565],[99.84599,7.75661],[99.84625,7.75794],[99.84681,7.75955],[99.84808,7.76143],[99.84933,7.76237],[99.84969,7.76276],[99.8499,7.76302],[99.85052,7.76368],[99.85098,7.76428],[99.8513,7.76449],[99.85167,7.76448],[99.85175,7.76442],[99.85228,7.76421],[99.85259,7.76415],[99.85285,7.76407],[99.85378,7.76406],[99.85419,7.7642],[99.85492,7.76424],[99.85514,7.76413],[99.85539,7.76409],[99.85573,7.76405],[99.85641,7.76406],[99.85725,7.76417],[99.85861,7.76445],[99.86042,7.76464],[99.86211,7.76541],[99.86289,7.76587],[99.8641,7.76609],[99.86486,7.76558],[99.86494,7.76507],[99.86494,7.76477],[99.86519,7.76444],[99.86588,7.76436],[99.86768,7.76456],[99.86889,7.7648],[99.87032,7.76447],[99.87175,7.76359],[99.87319,7.76281],[99.87443,7.76216],[99.87499,7.76132],[99.87522,7.76051],[99.87542,7.76007],[99.87599,7.75982],[99.87646,7.75985],[99.87709,7.76007],[99.87766,7.76],[99.87815,7.75986],[99.87904,7.75989],[99.88028,7.76026],[99.88075,7.76049],[99.88126,7.76097],[99.88203,7.76157],[99.88296,7.76184],[99.88352,7.76124],[99.88414,7.7605],[99.88479,7.76004],[99.88539,7.75969],[99.88591,7.75966],[99.88634,7.75973],[99.88696,7.7594],[99.88721,7.75933],[99.88765,7.75938],[99.88803,7.7596],[99.88845,7.75992],[99.88898,7.75991],[99.88925,7.75984],[99.88953,7.75985],[99.88998,7.76],[99.89134,7.76029],[99.89167,7.76029],[99.89234,7.76039],[99.89283,7.76069],[99.89337,7.76108],[99.89391,7.76108],[99.89435,7.76097],[99.89568,7.76106],[99.8964,7.7614],[99.89698,7.76168],[99.89782,7.7619],[99.89862,7.7619],[99.89908,7.7615],[99.89935,7.76111],[99.89966,7.76091],[99.89996,7.76082],[99.90027,7.76092],[99.90042,7.76109],[99.90046,7.76131],[99.90024,7.76173],[99.89992,7.76241],[99.8998,7.76296],[99.89989,7.76321],[99.90013,7.76354],[99.90032,7.76396],[99.90029,7.76458],[99.90056,7.76497],[99.90114,7.7654],[99.90147,7.76573],[99.90166,7.76613],[99.90172,7.76649],[99.90177,7.76689],[99.90205,7.76744],[99.90249,7.76799],[99.90308,7.76834],[99.90354,7.76852],[99.90398,7.7688],[99.9043,7.76918],[99.90472,7.76986],[99.90519,7.77045],[99.90548,7.7706],[99.9059,7.7708],[99.90624,7.77093],[99.90657,7.77125],[99.90672,7.77178],[99.90656,7.77248],[99.90635,7.77317],[99.9062,7.77389],[99.90608,7.77433],[99.9062,7.77449],[99.90652,7.77439],[99.9068,7.77425],[99.90707,7.77425],[99.9072,7.7744],[99.90722,7.77471],[99.90708,7.77524],[99.90712,7.7755],[99.90775,7.77614],[99.90859,7.77641],[99.91002,7.77643],[99.91115,7.77712],[99.91252,7.77822],[99.91379,7.77896],[99.91488,7.77953],[99.91583,7.78012],[99.91664,7.7804],[99.91758,7.78086],[99.9184,7.78151],[99.91928,7.78248],[99.92011,7.78289],[99.92081,7.78289],[99.92138,7.78268],[99.9221,7.78243],[99.92265,7.78246],[99.92285,7.78273],[99.92276,7.78293],[99.92247,7.7832],[99.92214,7.78358],[99.92226,7.78419],[99.92287,7.78449],[99.9233,7.78468],[99.92355,7.78479],[99.92392,7.78521],[99.92411,7.78587],[99.92411,7.78624],[99.92416,7.78676],[99.92466,7.78704],[99.92501,7.78703],[99.92548,7.78699],[99.92557,7.78721],[99.92553,7.7874],[99.9254,7.78769],[99.92551,7.788],[99.92585,7.78828],[99.92609,7.78854],[99.92631,7.78895],[99.92707,7.78972],[99.92781,7.7902],[99.92879,7.79075],[99.92955,7.79116],[99.93043,7.79132],[99.93053,7.79147],[99.93062,7.79162],[99.93072,7.79178],[99.93082,7.79193],[99.93093,7.79207],[99.93105,7.79221],[99.93117,7.79234],[99.93129,7.79248],[99.93141,7.79262],[99.93151,7.79276],[99.93161,7.79292],[99.93171,7.79307],[99.93181,7.79322],[99.93189,7.79338],[99.93198,7.79354],[99.93205,7.7937],[99.93212,7.79387],[99.93218,7.79404],[99.93224,7.79422],[99.93229,7.79439],[99.93235,7.79456],[99.93241,7.79473],[99.93246,7.79491],[99.93252,7.79508],[99.93257,7.79525],[99.93261,7.79543],[99.93266,7.7956],[99.93272,7.79577],[99.9328,7.79594],[99.9329,7.79609],[99.93303,7.79622],[99.93317,7.79633],[99.93334,7.79639],[99.93352,7.7964],[99.9337,7.79637],[99.93388,7.79632],[99.93405,7.79627],[99.93422,7.7962],[99.93439,7.79615],[99.93457,7.79612],[99.93476,7.79609],[99.93494,7.79607],[99.93512,7.79608],[99.93529,7.79612],[99.93544,7.79621],[99.93559,7.79632],[99.93574,7.79644],[99.93588,7.79655],[99.93603,7.79667],[99.93617,7.79678],[99.93631,7.79688],[99.93648,7.79695],[99.93667,7.79699],[99.93685,7.79698],[99.937,7.79688],[99.93712,7.79673],[99.93715,7.79657],[99.93706,7.7964],[99.93696,7.79624],[99.93685,7.79609],[99.93676,7.79594],[99.93669,7.79577],[99.93663,7.7956],[99.93659,7.79542],[99.93657,7.79524],[99.93661,7.79505],[99.93671,7.7949],[99.93687,7.79485],[99.93707,7.79484],[99.93724,7.79489],[99.93741,7.79496],[99.93756,7.79505],[99.93772,7.79515],[99.93788,7.79524],[99.93804,7.79533],[99.9382,7.79542],[99.93836,7.7955],[99.93853,7.79558],[99.93869,7.79567],[99.93885,7.79575],[99.93902,7.79583],[99.93919,7.7959],[99.93936,7.79596],[99.93953,7.79602],[99.9397,7.79605],[99.93988,7.79608],[99.94005,7.7961],[99.94023,7.79611],[99.94042,7.79611],[99.9406,7.7961],[99.94078,7.7961],[99.94097,7.79609],[99.94115,7.79608],[99.94133,7.79607],[99.94151,7.79607],[99.9417,7.79607],[99.94188,7.79606],[99.94206,7.79606],[99.94224,7.79605],[99.94242,7.79604],[99.9426,7.79604],[99.94279,7.79604],[99.94297,7.79605],[99.94315,7.79606],[99.94333,7.79607],[99.94352,7.79609],[99.9437,7.79612],[99.94387,7.79616],[99.94404,7.79623],[99.94419,7.79631],[99.94435,7.79641],[99.94449,7.79652],[99.94463,7.79665],[99.94476,7.79678],[99.94488,7.79691],[99.945,7.79705],[99.94511,7.7972],[99.9452,7.79736],[99.94528,7.79752],[99.94535,7.79769],[99.94539,7.79786],[99.94541,7.79804],[99.9454,7.79822],[99.94538,7.79841],[99.94536,7.79859],[99.94532,7.79877],[99.94526,7.79895],[99.94524,7.79913],[99.94528,7.79929],[99.94536,7.79946],[99.94545,7.79961],[99.94555,7.79977],[99.94566,7.79992],[99.94576,7.80007],[99.94586,7.80022],[99.94597,7.80037],[99.94608,7.80051],[99.94619,7.80066],[99.9463,7.8008],[99.94642,7.80094],[99.94654,7.80108],[99.94667,7.80121],[99.94681,7.80131],[99.94698,7.80138],[99.94717,7.80139],[99.94734,7.80135],[99.94749,7.80123],[99.94761,7.80109],[99.9477,7.80094],[99.94778,7.80078],[99.94786,7.80061],[99.94794,7.80045],[99.94802,7.80028],[99.94811,7.80012],[99.94823,7.79999],[99.94839,7.79991],[99.94858,7.79988],[99.94875,7.79992],[99.94888,7.80004],[99.94899,7.80019],[99.94908,7.80036],[99.94914,7.80052],[99.94917,7.8007],[99.9492,7.80089],[99.94924,7.80106],[99.94932,7.80123],[99.9494,7.8014],[99.9495,7.80155],[99.94964,7.80165],[99.94983,7.80171],[99.95,7.80169],[99.95015,7.8016],[99.9503,7.80148],[99.95043,7.80134],[99.95054,7.8012],[99.95064,7.80105],[99.95073,7.80089],[99.95083,7.80074],[99.95096,7.80062],[99.95114,7.80056],[99.95132,7.80059],[99.95147,7.80068],[99.95161,7.80081],[99.95173,7.80094],[99.95184,7.80109],[99.95194,7.80124],[99.95205,7.80138],[99.95219,7.80152],[99.95234,7.80162],[99.95251,7.80161],[99.95267,7.80151],[99.95279,7.80138],[99.95289,7.80122],[99.953,7.80108],[99.95318,7.80106],[99.95333,7.80118],[99.9534,7.80134],[99.95341,7.80152],[99.95339,7.8017],[99.95334,7.80188],[99.95328,7.80206],[99.95325,7.80223],[99.95331,7.80241],[99.95342,7.80256],[99.95357,7.80265],[99.95376,7.80267],[99.9539,7.80258],[99.95404,7.80245],[99.95419,7.80235],[99.95435,7.80226],[99.95452,7.80219],[99.9547,7.80217],[99.95488,7.80219],[99.95505,7.80226],[99.95521,7.80236],[99.95537,7.80245],[99.95554,7.80248],[99.95571,7.80245],[99.95588,7.80238],[99.95605,7.8023],[99.95621,7.8022],[99.95635,7.80208],[99.95651,7.80202],[99.9567,7.80199],[99.95688,7.80199],[99.95706,7.80202],[99.95723,7.80207],[99.9574,7.80213],[99.95757,7.8022],[99.95774,7.80226],[99.95792,7.80231],[99.9581,7.80235],[99.95828,7.80238],[99.95846,7.80238],[99.95865,7.80235],[99.95879,7.80225],[99.95888,7.8021],[99.95897,7.80193],[99.95907,7.80178],[99.95917,7.80163],[99.95928,7.80148],[99.95939,7.80134],[99.9595,7.8012],[99.95962,7.80106],[99.95976,7.80094],[99.9599,7.80082],[99.96002,7.80069],[99.96013,7.80055],[99.96022,7.80039],[99.9603,7.80022],[99.96034,7.80005],[99.96031,7.79987],[99.96025,7.7997],[99.96018,7.79953],[99.9601,7.79936],[99.96006,7.79919],[99.96014,7.79902],[99.9603,7.79894],[99.96048,7.7989],[99.96066,7.79887],[99.96084,7.79884],[99.96102,7.7988],[99.96119,7.79874],[99.96136,7.79867],[99.96152,7.79859],[99.96166,7.79847],[99.96175,7.79832],[99.96183,7.79815],[99.96193,7.798],[99.96203,7.79785],[99.96215,7.79771],[99.96228,7.79758],[99.96244,7.79751],[99.96263,7.79749],[99.96281,7.79748],[99.96295,7.79758],[99.96299,7.79776],[99.96298,7.79795],[99.96292,7.79813],[99.96296,7.79829],[99.96308,7.79843],[99.96324,7.79853],[99.96341,7.79853],[99.96357,7.79843],[99.96365,7.79827],[99.96377,7.79813],[99.96393,7.79804],[99.96411,7.79799],[99.96429,7.79795],[99.96447,7.79797],[99.96462,7.79806],[99.96476,7.79817],[99.9649,7.7983],[99.96503,7.79843],[99.96515,7.79857],[99.96527,7.79871],[99.96538,7.79885],[99.96548,7.799],[99.9656,7.79914],[99.96571,7.79928],[99.96583,7.79941],[99.96596,7.79955],[99.96609,7.79969],[99.96624,7.79973],[99.96637,7.79962],[99.9665,7.79949],[99.96662,7.79935],[99.96675,7.7992],[99.96686,7.79906],[99.96697,7.79891],[99.96713,7.79884],[99.96731,7.79882],[99.96748,7.79887],[99.96766,7.79891],[99.96784,7.79893],[99.96803,7.79894],[99.96821,7.79891],[99.96836,7.79884],[99.96851,7.79873],[99.96865,7.79862],[99.9688,7.7985],[99.96894,7.79838],[99.96907,7.79826],[99.96921,7.79815],[99.96936,7.79804],[99.96952,7.79793],[99.96968,7.79787],[99.96986,7.79787],[99.97004,7.79789],[99.97022,7.79792],[99.9704,7.79797],[99.97058,7.79801],[99.97075,7.79805],[99.97093,7.79809],[99.97111,7.79814],[99.97128,7.79818],[99.97146,7.79823],[99.97163,7.79827],[99.97181,7.79831],[99.97199,7.79835],[99.97217,7.79837],[99.97235,7.79839],[99.97253,7.7984],[99.97271,7.79842],[99.97289,7.79842],[99.97307,7.79843],[99.97325,7.79844],[99.97343,7.79846],[99.97362,7.79848],[99.9738,7.79849],[99.97398,7.79851],[99.97416,7.79852],[99.97434,7.79855],[99.97452,7.79858],[99.97469,7.79863],[99.97485,7.7987],[99.97501,7.7988],[99.97515,7.79891],[99.97536,7.79906],[99.97557,7.7992],[99.97632,7.80027],[99.9767,7.80179],[99.97672,7.80287],[99.97682,7.80345],[99.97713,7.80379],[99.97771,7.80407],[99.97797,7.80388],[99.97823,7.80321],[99.9785,7.80239],[99.97871,7.80161],[99.97896,7.80121],[99.97929,7.80096],[99.97969,7.80092],[99.97988,7.80107],[99.97992,7.80147],[99.97973,7.80198],[99.98007,7.80232],[99.98073,7.80232],[99.98135,7.80271],[99.98194,7.80339],[99.98237,7.80392],[99.9835,7.80451],[99.98528,7.80424],[99.98657,7.80444],[99.98887,7.8057],[99.99084,7.80705],[99.99198,7.80925],[99.99128,7.8124],[99.9891,7.81809],[99.9884,7.82273],[99.98787,7.82684],[99.9874,7.8289],[99.98718,7.82985],[99.98729,7.8309],[99.98746,7.8325],[99.98806,7.83545],[99.9888,7.8377],[99.9894,7.84073],[99.98969,7.84322],[99.9899,7.84575],[99.98965,7.84702],[99.98833,7.84739],[99.98642,7.84735],[99.98623,7.84737],[99.98496,7.8475],[99.98266,7.84914],[99.98127,7.85145],[99.98012,7.85365],[99.97887,7.85555],[99.97751,7.85681],[99.97536,7.85823],[99.97366,7.85935],[99.97256,7.86051],[99.97246,7.86142],[99.97291,7.86203],[99.97383,7.86209],[99.97448,7.86229],[99.97494,7.86353],[99.97509,7.86485],[99.97518,7.86646],[99.97528,7.87296],[99.97511,7.87318],[99.9735,7.87517],[99.97069,7.87903],[99.96776,7.88236],[99.96617,7.88405],[99.9647,7.88549],[99.96303,7.88725],[99.96081,7.88926]]]},"properties":{"AP_CODE":"10","AP_TN":"ป่าพยอม","AP_EN":"Pa Phayom","PV_CODE":"93","PV_TN":"พัทลุง"}}],"source":{"name":"GISTDA L05_Amphoe_GISTDA_50k","url":"https://gistdaportal.gistda.or.th/data/rest/services/L05_AdminBoundary/L05_Amphoe_GISTDA_50k/MapServer/0","retrievedAt":"2026-10-08"}}